NORAD_CAT_ID,OBJECT_NAME,OBJECT_TYPE,EPOCH,MEAN_MOTION,ECCENTRICITY,INCLINATION,RA_OF_ASC_NODE,ARG_OF_PERICENTER,MEAN_ANOMALY,BSTAR,MEAN_MOTION_DOT,MEAN_MOTION_DDOT,TLE_LINE0,TLE_LINE1,TLE_LINE2,SEMIMAJOR_AXIS,PERIOD,APOGEE,PERIGEE,DECAYED
53184.0,STARLINK-4257,PAYLOAD,2024-05-31 16:55:18,15.08839808,0.0001276,53.216,148.133,83.868,276.2458,8.7172e-05,1.1e-05,0.0,0 STARLINK-4257,1 53184U 22083BE  24152.70507783  .00001100  00000-0  87172-4 0  9998,2 53184  53.2160 148.1330 0001276  83.8680 276.2458 15.08839808104884,6917.881,95.438,540.629,538.863,0.0
53184.0,STARLINK-4257,PAYLOAD,2024-06-01 04:03:01,15.08829464,0.0001451,53.2168,146.0525,84.3154,275.8004,-4.1072e-05,-9.41e-06,0.0,0 STARLINK-4257,1 53184U 22083BE  24153.16876965 -.00000941  00000-0 -41072-4 0  9993,2 53184  53.2168 146.0525 0001451  84.3154 275.8004 15.08829464104959,6917.913,95.438,540.781,538.774,0.0
53184.0,STARLINK-4257,PAYLOAD,2024-06-01 08:49:11,15.08830987,0.0001491,53.2168,145.1606,83.5245,276.5917,-3.4118e-05,-8.31e-06,0.0,0 STARLINK-4257,1 53184U 22083BE  24153.36748914 -.00000831  00000-0 -34118-4 0  9998,2 53184  53.2168 145.1606 0001491  83.5245 276.5917 15.08830987104352,6917.908,95.438,540.804,538.741,0.0
53184.0,STARLINK-4257,PAYLOAD,2024-06-02 05:29:11,15.0883695,0.0001479,53.2165,141.294,85.2811,274.835,3.2139e-05,2.24e-06,0.0,0 STARLINK-4257,1 53184U 22083BE  24154.22860665  .00000224  00000-0  32139-4 0  9997,2 53184  53.2165 141.2940 0001479  85.2811 274.8350 15.08836950105114,6917.89,95.438,540.778,538.732,0.0
53184.0,STARLINK-4257,PAYLOAD,2024-06-03 05:19:58,15.08842599,0.0001435,53.2166,136.8333,86.7541,273.3615,0.00020539,2.983e-05,0.0,0 STARLINK-4257,1 53184U 22083BE  24155.22220119  .00002983  00000-0  20539-3 0  9996,2 53184  53.2166 136.8333 0001435  86.7541 273.3615 15.08842599105269,6917.872,95.437,540.73,538.745,0.0
53184.0,STARLINK-4257,PAYLOAD,2024-06-04 08:21:30,15.08855793,0.0001489,53.2169,131.7767,91.4912,268.6251,0.00016288,2.306e-05,0.0,0 STARLINK-4257,1 53184U 22083BE  24156.34827095  .00002306  00000-0  16288-3 0  9991,2 53184  53.2169 131.7767 0001489  91.4912 268.6251 15.08855793105433,6917.832,95.437,540.727,538.667,0.0
53184.0,STARLINK-4257,PAYLOAD,2024-06-04 22:39:59,15.08844397,0.0001402,53.2167,129.0996,101.678,258.4369,-2.1299e-07,-2.91e-06,0.0,0 STARLINK-4257,1 53184U 22083BE  24156.94444007 -.00000291  00000-0 -21299-6 0  9999,2 53184  53.2167 129.0996 0001402 101.6780 258.4369 15.08844397104891,6917.867,95.437,540.702,538.762,0.0
53184.0,STARLINK-4257,PAYLOAD,2024-06-05 05:01:31,15.08847797,0.0001412,53.2166,127.9119,94.6254,265.4899,2.876e-05,1.7e-06,0.0,0 STARLINK-4257,1 53184U 22083BE  24157.20939652  .00000170  00000-0  28760-4 0  9996,2 53184  53.2166 127.9119 0001412  94.6254 265.4899 15.08847797105560,6917.857,95.437,540.698,538.745,0.0
53184.0,STARLINK-4257,PAYLOAD,2024-06-05 22:30:47,15.08838599,0.0001394,53.2178,124.6437,99.0022,261.1128,-0.00011494,-2.117e-05,0.0,0 STARLINK-4257,1 53184U 22083BE  24157.93804627 -.00002117  00000-0 -11494-3 0  9999,2 53184  53.2178 124.6437 0001394  99.0022 261.1128 15.08838599105042,6917.885,95.438,540.714,538.785,0.0
53184.0,STARLINK-4257,PAYLOAD,2024-06-06 04:52:19,15.08837983,0.0001404,53.2182,123.4546,97.1663,262.9489,-0.00010033,-1.884e-05,0.0,0 STARLINK-4257,1 53184U 22083BE  24158.20300634 -.00001884  00000-0 -10033-3 0  9997,2 53184  53.2182 123.4546 0001404  97.1663 262.9489 15.08837983105716,6917.887,95.438,540.723,538.78,0.0
53184.0,STARLINK-4257,PAYLOAD,2024-06-06 14:24:38,15.08841608,0.0001442,53.2181,121.6699,96.4972,263.6185,-6.9809e-05,-1.399e-05,0.0,0 STARLINK-4257,1 53184U 22083BE  24158.60044364 -.00001399  00000-0 -69809-4 0  9993,2 53184  53.2181 121.6699 0001442  96.4972 263.6185 15.08841608105148,6917.875,95.437,540.738,538.743,0.0
53184.0,STARLINK-4257,PAYLOAD,2024-06-07 07:53:52,15.08844089,0.0001415,53.2171,118.3977,96.9279,263.1874,0.00011287,1.509e-05,0.0,0 STARLINK-4257,1 53184U 22083BE  24159.32907913  .00001509  00000-0  11287-3 0  9998,2 53184  53.2171 118.3977 0001415  96.9279 263.1874 15.08844089105881,6917.868,95.437,540.712,538.754,0.0
53184.0,STARLINK-4257,PAYLOAD,2024-06-07 14:15:26,15.08807624,0.0001546,53.2172,117.2059,97.6228,262.4939,0.00065868,0.00010201,0.0,0 STARLINK-4257,1 53184U 22083BE  24159.59405503  .00010201  00000-0  65868-3 0  9998,2 53184  53.2172 117.2059 0001546  97.6228 262.4939 15.08807624105291,6917.979,95.44,540.914,538.775,0.0
53184.0,STARLINK-4257,PAYLOAD,2024-06-08 04:33:53,15.08837781,0.0001659,53.2184,114.53,85.6083,274.5099,0.00014438,2.01e-05,0.0,0 STARLINK-4257,1 53184U 22083BE  24160.19020663  .00002010  00000-0  14438-3 0  9992,2 53184  53.2184 114.5300 0001659  85.6083 274.5099 15.08837781106013,6917.887,95.438,540.9,538.604,0.0
53184.0,STARLINK-4257,PAYLOAD,2024-06-08 14:06:12,15.0883513,0.0001364,53.217,112.7453,89.9689,270.146,5.0223e-05,5.11e-06,0.0,0 STARLINK-4257,1 53184U 22083BE  24160.58765012  .00000511  00000-0  50223-4 0  9996,2 53184  53.2170 112.7453 0001364  89.9689 270.1460 15.08835130105445,6917.895,95.438,540.704,538.817,0.0
53184.0,STARLINK-4257,PAYLOAD,2024-06-09 13:56:59,15.08842435,0.0001317,53.2158,108.2869,95.0889,265.0254,-2.0407e-05,-6.13e-06,0.0,0 STARLINK-4257,1 53184U 22083BE  24161.58124959 -.00000613  00000-0 -20407-4 0  9992,2 53184  53.2158 108.2869 0001317  95.0889 265.0254 15.08842435105596,6917.873,95.437,540.649,538.827,0.0
53184.0,STARLINK-4257,PAYLOAD,2024-06-10 05:50:50,15.08851146,0.0001331,53.2168,105.3115,101.7334,258.3807,7.0919e-05,8.41e-06,0.0,0 STARLINK-4257,1 53184U 22083BE  24162.24364234  .00000841  00000-0  70919-4 0  9992,2 53184  53.2168 105.3115 0001331 101.7334 258.3807 15.08851146106325,6917.846,95.437,540.632,538.791,0.0
53184.0,STARLINK-4257,PAYLOAD,2024-06-10 13:47:46,15.08844072,0.0001338,53.2173,103.8244,102.7673,257.3469,1.881e-05,1.1e-07,0.0,0 STARLINK-4257,1 53184U 22083BE  24162.57484772  .00000011  00000-0  18810-4 0  9999,2 53184  53.2173 103.8244 0001338 102.7673 257.3469 15.08844072105749,6917.868,95.437,540.659,538.807,0.0
53184.0,STARLINK-4257,PAYLOAD,2024-06-11 05:41:38,15.08842818,0.0001411,53.2175,100.8511,98.6469,261.4683,0.00010958,1.457e-05,0.0,0 STARLINK-4257,1 53184U 22083BE  24163.23724921  .00001457  00000-0  10958-3 0  9995,2 53184  53.2175 100.8511 0001411  98.6469 261.4683 15.08842818105844,6917.872,95.437,540.713,538.761,0.0
53184.0,STARLINK-4257,PAYLOAD,2024-06-12 02:21:38,15.08851226,0.0001489,53.2181,96.985,100.2211,259.8949,0.00011116,1.482e-05,0.0,0 STARLINK-4257,1 53184U 22083BE  24164.09836265  .00001482  00000-0  11116-3 0  9990,2 53184  53.2181  96.9850 0001489 100.2211 259.8949 15.08851226106606,6917.846,95.437,540.741,538.681,0.0
53184.0,STARLINK-4257,PAYLOAD,2024-06-13 02:12:26,15.08837957,0.0001359,53.2177,92.5255,91.219,268.8958,-1.1692e-05,-4.74e-06,0.0,0 STARLINK-4257,1 53184U 22083BE  24165.09197521 -.00000474  00000-0 -11692-4 0  9998,2 53184  53.2177  92.5255 0001359  91.2190 268.8958 15.08837957106754,6917.887,95.438,540.692,538.811,0.0
53184.0,STARLINK-4257,PAYLOAD,2024-06-13 11:44:45,15.08838701,0.000137,53.2179,90.7417,90.5455,269.5694,-7.0616e-06,-4e-06,0.0,0 STARLINK-4257,1 53184U 22083BE  24165.48941479 -.00000400  00000-0 -70616-5 0  9991,2 53184  53.2179  90.7417 0001370  90.5455 269.5694 15.08838701106185,6917.884,95.438,540.697,538.802,0.0
53184.0,STARLINK-4257,PAYLOAD,2024-06-13 22:52:27,15.08843635,0.0001275,53.2175,88.6591,90.8911,269.2228,-9.6798e-06,-4.42e-06,0.0,0 STARLINK-4257,1 53184U 22083BE  24165.95309238 -.00000442  00000-0 -96798-5 0  9999,2 53184  53.2175  88.6591 0001275  90.8911 269.2228 15.08843635106254,6917.869,95.437,540.616,538.852,0.0
53184.0,STARLINK-4257,PAYLOAD,2024-06-14 11:35:31,15.08848711,0.0001287,53.2177,86.2842,94.9711,265.1428,3.1362e-05,2.11e-06,0.0,0 STARLINK-4257,1 53184U 22083BE  24166.48300706  .00000211  00000-0  31362-4 0  9996,2 53184  53.2177  86.2842 0001287  94.9711 265.1428 15.08848711106331,6917.854,95.437,540.609,538.828,0.0
53184.0,STARLINK-4257,PAYLOAD,2024-06-14 22:43:14,15.08831964,0.0001411,53.2189,84.2032,92.2573,267.8581,7.7552e-05,9.46e-06,0.0,0 STARLINK-4257,1 53184U 22083BE  24166.94669962  .00000946  00000-0  77552-4 0  9995,2 53184  53.2189  84.2032 0001411  92.2573 267.8581 15.08831964106408,6917.905,95.438,540.746,538.794,0.0
53184.0,STARLINK-4257,PAYLOAD,2024-06-15 11:26:19,15.08837594,0.0001216,53.2175,81.8195,84.0817,276.0313,7.6774e-05,9.34e-06,0.0,0 STARLINK-4257,1 53184U 22083BE  24167.47661680  .00000934  00000-0  76774-4 0  9995,2 53184  53.2175  81.8195 0001216  84.0817 276.0313 15.08837594106487,6917.888,95.438,540.594,538.912,0.0
53184.0,STARLINK-4257,PAYLOAD,2024-06-15 22:34:01,15.08837368,0.0001371,53.2181,79.7388,86.506,273.6089,4.8309e-05,4.81e-06,0.0,0 STARLINK-4257,1 53184U 22083BE  24167.94029940  .00000481  00000-0  48309-4 0  9994,2 53184  53.2181  79.7388 0001371  86.5060 273.6089 15.08837368106553,6917.888,95.438,540.702,538.805,0.0
53184.0,STARLINK-4257,PAYLOAD,2024-06-16 11:17:06,15.088421,0.0001385,53.2175,77.3603,80.4175,279.6974,2.9021e-05,1.74e-06,0.0,0 STARLINK-4257,1 53184U 22083BE  24168.47021697  .00000174  00000-0  29021-4 0  9993,2 53184  53.2175  77.3603 0001385  80.4175 279.6974 15.08842100106633,6917.874,95.437,540.697,538.781,0.0
53184.0,STARLINK-4257,PAYLOAD,2024-06-16 22:24:49,15.08831336,0.0001491,53.2186,75.2781,84.8201,275.2961,0.00015212,2.133e-05,0.0,0 STARLINK-4257,1 53184U 22083BE  24168.93390315  .00002133  00000-0  15212-3 0  9993,2 53184  53.2186  75.2781 0001491  84.8201 275.2961 15.08831336106700,6917.907,95.438,540.803,538.74,0.0
53184.0,STARLINK-4257,PAYLOAD,2024-06-17 22:15:35,15.08842106,0.0001601,53.218,70.8215,88.965,271.1525,0.00010302,1.352e-05,0.0,0 STARLINK-4257,1 53184U 22083BE  24169.92749793  .00001352  00000-0  10302-3 0  9998,2 53184  53.2180  70.8215 0001601  88.9650 271.1525 15.08842106106857,6917.874,95.437,540.847,538.631,0.0
